COSMOS 2433 (720)       
1 32275U 07052A   26198.88664809 -.00000070  00000+0  00000+0 0  9994
2 32275  65.5578 314.9006 0003631 203.8821 156.1180  2.13104037145718
COSMOS 2432 (719)       
1 32276U 07052B   26199.90495562 -.00000076  00000+0  00000+0 0  9993
2 32276  65.5730 314.9948 0007379 321.4337  43.5458  2.13103040145761
COSMOS 2434 (721)       
1 32393U 07065A   26199.49568220  .00000065  00000+0  00000+0 0  9990
2 32393  64.3202 190.8597 0001233 326.9616  29.9549  2.13101158144436
COSMOS 2436 (723)       
1 32395U 07065C   26200.26988979  .00000073  00000+0  00000+0 0  9996
2 32395  64.3288 190.9062 0017323 353.6303   9.4043  2.13099955144418
COSMOS 2456 (730)       
1 36111U 09070A   26197.17812943 -.00000016  00000+0  00000+0 0  9994
2 36111  65.0282  69.9837 0003619 341.3386 195.9451  2.13103565129042
COSMOS 2457 (733)       
1 36112U 09070B   26199.82229978 -.00000040  00000+0  00000+0 0  9996
2 36112  65.0155  69.7367 0004220 121.6258  51.3021  2.13100964129109
COSMOS 2460 (732)       
1 36402U 10007C   26199.35669755 -.00000072  00000+0  00000+0 0  9994
2 36402  65.4006 313.4121 0001849 148.1871  29.5036  2.13101436127393
COSMOS 2476 (744)       
1 37867U 11064A   26199.17433977 -.00000032  00000+0  00000+0 0  9995
2 37867  65.2874  71.8256 0022067 235.6441 301.3919  2.13103618114429
COSMOS 2477 (745)       
1 37868U 11064B   26196.15395625 -.00000010  00000+0  00000+0 0  9994
2 37868  65.2921  72.0075 0019117 236.8947 323.2552  2.13102912114355
COSMOS 2475 (743)       
1 37869U 11064C   26198.80033905 -.00000028  00000+0  00000+0 0  9998
2 37869  65.3005  71.9400 0024690 250.9775 134.3774  2.13101626114424
COSMOS 2485 (747)       
1 39155U 13019A   26198.41189181 -.00000024  00000+0  00000+0 0  9991
2 39155  65.4363  72.5906 0022584 230.9016 128.9717  2.13103096102927
COSMOS 2492 (754)       
1 39620U 14012A   26200.24778130 -.00000077  00000+0  00000+0 0  9993
2 39620  65.2767 312.8464 0010279 317.3075  42.6335  2.13103146 95927
COSMOS 2500 (755)       
1 40001U 14032A   26199.47862507 -.00000073  00000+0  00000+0 0  9990
2 40001  65.2124 312.6171 0008387 190.9588 169.0438  2.13105734 94127
COSMOS 2501 (702K)      
1 40315U 14075A   26199.27175601  .00000062  00000+0  00000+0 0  9992
2 40315  63.6183 189.2960 0022680 212.6285 147.2256  2.13101246 90513
COSMOS 2514 (751)       
1 41330U 16008A   26199.72561542 -.00000074  00000+0  00000+0 0  9995
2 41330  65.0007 311.9242 0012428 201.6103 158.3594  2.13102626 81291
COSMOS 2522 (752)       
1 42939U 17055A   26199.09397106  .00000060  00000+0  00000+0 0  9991
2 42939  64.0809 190.8323 0010876 240.6480 119.2397  2.13101776 68631
COSMOS 2527 (756)       
1 43508U 18053A   26199.99452881 -.00000039  00000+0  00000+0 0  9991
2 43508  65.5952  72.8467 0006387 228.7015 131.3138  2.13102002 62950
COSMOS 2529 (757)       
1 43687U 18086A   26199.15218686  .00000061  00000+0  00000+0 0  9990
2 43687  64.2974 191.5488 0012076 256.3198 103.5433  2.13101979 59947
COSMOS 2534 (758)       
1 44299U 19030A   26197.64953360  .00000052  00000+0  00000+0 0  9997
2 44299  64.3705 191.6243 0013502 275.0108 146.6615  2.13102191 55554
COSMOS 2544 (759)       
1 44850U 19088A   26199.46983574 -.00000034  00000+0  00000+0 0  9996
2 44850  65.5825  72.6872 0012069 253.1626 106.7768  2.13102896 51383
COSMOS 2545 (760)       
1 45358U 20018A   26198.72624926 -.00000069  00000+0  00000+0 0  9994
2 45358  64.3350 311.3457 0009663 229.7748 130.1625  2.13102350 49317
COSMOS 2547 (705K)      
1 46805U 20075A   26196.56966866  .00000054  00000+0  00000+0 0  9990
2 46805  64.6014 191.5282 0009458 239.8249 120.0839  2.13099910 44518
COSMOS 2557 (706K)      
1 52984U 22075A   26196.73380763 -.00000064  00000+0  00000+0 0  9994
2 52984  64.2802 313.4798 0010855 271.2186  88.6706  2.13102146 31327
COSMOS 2559 (707K)      
1 54031U 22130A   26198.89981604 -.00000072  00000+0  00000+0 0  9990
2 54031  64.2511 313.4857 0013130 181.3333 178.6825  2.13101711 29347
COSMOS 2564 (761)       
1 54377U 22161A   26200.15069211  .00000072  00000+0  00000+0 0  9990
2 54377  64.7441 191.6506 0012193 224.8358 135.0652  2.13102039 28317
COSMOS 2569 (703K)      
1 57517U 23114A   26199.22448020 -.00000033  00000+0  00000+0 0  9990
2 57517  65.3199  71.5741 0009564 295.7059  64.2679  2.13103790 22921
COSMOS 2584 (704K)      
1 63130U 25042A   26200.04979476 -.00000041  00000+0  00000+0 0  9996
2 63130  65.1027  71.7190 0005554 213.0172 147.0181  2.13103871 10724
COSMOS 2596 (708K)      
1 65590U 25206B   26199.43034039 -.00000074  00000+0  00000+0 0  9993
2 65590  64.6143 313.8972 0011190 307.2351  53.5674  2.13100852  6588
